[{"OBJECT_NAME":"STARLINK-5865","OBJECT_ID":"2023-088F","EPOCH":"2026-03-09T10:53:59.688384","MEAN_MOTION":15.02533595,"ECCENTRICITY":0.00011783,"INCLINATION":43.0027,"RA_OF_ASC_NODE":108.8078,"ARG_OF_PERICENTER":270.98,"MEAN_ANOMALY":89.0907,"EPHEMERIS_TYPE":0,"CLASSIFICATION_TYPE":"U","NORAD_CAT_ID":57053,"ELEMENT_SET_NO":999,"REV_AT_EPOCH":15033,"BSTAR":-4.665618e-6,"MEAN_MOTION_DOT":-2.67e-6,"MEAN_MOTION_DDOT":0},{"OBJECT_NAME":"CZ-6A DEB","OBJECT_ID":"2024-140YA","EPOCH":"2026-03-09T14:26:17.481408","MEAN_MOTION":14.80843651,"ECCENTRICITY":0.009905,"INCLINATION":89.0273,"RA_OF_ASC_NODE":282.6505,"ARG_OF_PERICENTER":174.5462,"MEAN_ANOMALY":185.6867,"EPHEMERIS_TYPE":0,"CLASSIFICATION_TYPE":"U","NORAD_CAT_ID":61409,"ELEMENT_SET_NO":999,"REV_AT_EPOCH":8023,"BSTAR":0.0018081,"MEAN_MOTION_DOT":0.00015217,"MEAN_MOTION_DDOT":0}]
